NORAD_CAT_ID,OBJECT_NAME,OBJECT_TYPE,EPOCH,MEAN_MOTION,ECCENTRICITY,INCLINATION,RA_OF_ASC_NODE,ARG_OF_PERICENTER,MEAN_ANOMALY,BSTAR,MEAN_MOTION_DOT,MEAN_MOTION_DDOT,TLE_LINE0,TLE_LINE1,TLE_LINE2,SEMIMAJOR_AXIS,PERIOD,APOGEE,PERIGEE,DECAYED
55965.0,STARLINK-5894,PAYLOAD,2023-10-30 04:46:45,14.98321731,0.0002625,69.9999,276.4359,260.3572,99.7291,-9.7713e-06,-2.09e-06,0.0,0 STARLINK-5894,1 55965U 23037BD  23303.19914233 -.00000209  00000-0 -97713-5 0  9993,2 55965  69.9999 276.4359 0002625 260.3572  99.7291 14.98321731 35777,6950.218,96.108,573.908,570.259,0.0
55965.0,STARLINK-5894,PAYLOAD,2023-10-30 22:24:14,14.98327091,0.0002842,69.9995,274.5839,269.4784,90.6049,2.7535e-05,2.36e-06,0.0,0 STARLINK-5894,1 55965U 23037BD  23303.93349989  .00000236  00000-0  27535-4 0  9997,2 55965  69.9995 274.5839 0002842 269.4784  90.6049 14.98327091 35542,6950.202,96.107,574.042,570.092,0.0
55965.0,STARLINK-5894,PAYLOAD,2023-10-31 04:48:46,14.98331235,0.0002492,70.0001,273.9113,265.1312,94.9563,5.5092e-05,5.64e-06,0.0,0 STARLINK-5894,1 55965U 23037BD  23304.20053708  .00000564  00000-0  55092-4 0  9992,2 55965  70.0001 273.9113 0002492 265.1312  94.9563 14.98331235 35927,6950.189,96.107,573.786,570.322,0.0
55965.0,STARLINK-5894,PAYLOAD,2023-10-31 08:01:02,14.9833004,0.0002562,69.9998,273.5741,265.6838,94.4028,3.963e-05,3.8e-06,0.0,0 STARLINK-5894,1 55965U 23037BD  23304.33405814  .00000380  00000-0  39630-4 0  9991,2 55965  69.9998 273.5741 0002562 265.6838  94.4028 14.98330040 35607,6950.193,96.107,573.838,570.277,0.0
55965.0,STARLINK-5894,PAYLOAD,2023-10-31 22:26:15,14.98327328,0.0002816,70.0008,272.0588,270.238,89.8456,6.1773e-05,6.44e-06,0.0,0 STARLINK-5894,1 55965U 23037BD  23304.93489890  .00000644  00000-0  61773-4 0  9999,2 55965  70.0008 272.0588 0002816 270.2380  89.8456 14.98327328 35698,6950.201,96.107,574.023,570.109,0.0
55965.0,STARLINK-5894,PAYLOAD,2023-11-01 04:50:46,14.98344461,0.0002677,70.0008,271.3861,266.2116,93.8737,0.00024125,2.788e-05,0.0,0 STARLINK-5894,1 55965U 23037BD  23305.20192454  .00002788  00000-0  24125-3 0  9997,2 55965  70.0008 271.3861 0002677 266.2116  93.8737 14.98344461 36078,6950.148,96.106,573.874,570.153,0.0
55965.0,STARLINK-5894,PAYLOAD,2023-11-01 08:03:03,14.98333667,0.0002679,69.9998,271.0493,265.2232,94.8622,0.00010971,1.216e-05,0.0,0 STARLINK-5894,1 55965U 23037BD  23305.33545388  .00001216  00000-0  10971-3 0  9998,2 55965  69.9998 271.0493 0002679 265.2232  94.8622 14.98333667 36093,6950.182,96.107,573.909,570.185,0.0
55965.0,STARLINK-5894,PAYLOAD,2023-11-01 22:28:15,14.98333896,0.0002693,70.0002,269.535,271.5009,88.5842,1.0362e-05,3.1e-07,0.0,0 STARLINK-5894,1 55965U 23037BD  23305.93629583  .00000031  00000-0  10362-4 0  9993,2 55965  70.0002 269.5350 0002693 271.5009  88.5842 14.98333896 35844,6950.181,96.107,573.918,570.174,0.0
55965.0,STARLINK-5894,PAYLOAD,2023-11-02 08:05:03,14.9833693,0.0002508,70.0005,268.5246,277.0369,83.0505,0.00011019,1.222e-05,0.0,0 STARLINK-5894,1 55965U 23037BD  23306.33685100  .00001222  00000-0  11019-3 0  9997,2 55965  70.0005 268.5246 0002508 277.0369  83.0505 14.98336930 36248,6950.171,96.107,573.78,570.293,0.0
55965.0,STARLINK-5894,PAYLOAD,2023-11-02 14:29:36,14.98343197,0.0002809,70.0003,267.851,270.6,89.4837,-0.00017525,-2.184e-05,0.0,0 STARLINK-5894,1 55965U 23037BD  23306.60389121 -.00002184  00000-0 -17525-3 0  9999,2 55965  70.0003 267.8510 0002809 270.6000  89.4837 14.98343197 35944,6950.152,96.106,573.969,570.065,0.0
55965.0,STARLINK-5894,PAYLOAD,2023-11-02 20:54:09,14.98316296,0.0002616,70.0006,267.1794,270.3259,89.7601,0.00018846,2.156e-05,0.0,0 STARLINK-5894,1 55965U 23037BD  23306.87093945  .00002156  00000-0  18846-3 0  9998,2 55965  70.0006 267.1794 0002616 270.3259  89.7601 14.98316296 36328,6950.235,96.108,573.918,570.282,0.0
55965.0,STARLINK-5894,PAYLOAD,2023-11-03 14:31:37,14.98331936,0.0002886,70.0,265.3268,267.379,92.7039,-7.2913e-05,-9.63e-06,0.0,0 STARLINK-5894,1 55965U 23037BD  23307.60529655 -.00000963  00000-0 -72913-4 0  9994,2 55965  70.0000 265.3268 0002886 267.3790  92.7039 14.98331936 36094,6950.187,96.107,574.058,570.046,0.0
55965.0,STARLINK-5894,PAYLOAD,2023-11-03 22:32:17,14.98331101,0.0002716,70.0001,264.4856,261.5247,98.5604,-4.6713e-05,-6.5e-06,0.0,0 STARLINK-5894,1 55965U 23037BD  23307.93909647 -.00000650  00000-0 -46713-4 0  9995,2 55965  70.0001 264.4856 0002716 261.5247  98.5604 14.98331101 36145,6950.189,96.107,573.942,570.167,0.0
55965.0,STARLINK-5894,PAYLOAD,2023-11-04 08:09:05,14.98336314,0.0002803,69.9999,263.4752,264.6491,95.4348,1.2818e-05,6e-07,0.0,0 STARLINK-5894,1 55965U 23037BD  23308.33965102  .00000060  00000-0  12818-4 0  9990,2 55965  69.9999 263.4752 0002803 264.6491  95.4348 14.98336314 36203,6950.173,96.107,573.986,570.09,0.0
55965.0,STARLINK-5894,PAYLOAD,2023-11-04 14:33:38,14.98330406,0.0002633,70.0021,262.7991,269.7141,90.3716,-1.9906e-05,-3.3e-06,0.0,0 STARLINK-5894,1 55965U 23037BD  23308.60669557 -.00000330  00000-0 -19906-4 0  9992,2 55965  70.0021 262.7991 0002633 269.7141  90.3716 14.98330406 36588,6950.192,96.107,573.887,570.227,0.0
55965.0,STARLINK-5894,PAYLOAD,2023-11-04 22:34:18,14.9832211,0.0003107,70.0008,261.9578,267.3424,92.738,0.00015497,1.756e-05,0.0,0 STARLINK-5894,1 55965U 23037BD  23308.94049465  .00001756  00000-0  15497-3 0  9990,2 55965  70.0008 261.9578 0003107 267.3424  92.7380 14.98322110 36294,6950.217,96.108,574.242,569.923,0.0
55965.0,STARLINK-5894,PAYLOAD,2023-11-05 03:22:42,14.98335129,0.0002956,69.9999,261.4544,264.9403,95.1419,0.0001134,1.26e-05,0.0,0 STARLINK-5894,1 55965U 23037BD  23309.14076793  .00001260  00000-0  11340-3 0  9990,2 55965  69.9999 261.4544 0002956 264.9403  95.1419 14.98335129 36664,6950.177,96.107,574.097,569.988,0.0
55965.0,STARLINK-5894,PAYLOAD,2023-11-05 14:35:38,14.98336111,0.0002975,70.0011,260.2758,270.015,90.0668,7.6929e-05,8.25e-06,0.0,0 STARLINK-5894,1 55965U 23037BD  23309.60808617  .00000825  00000-0  76929-4 0  9990,2 55965  70.0011 260.2758 0002975 270.0150  90.0668 14.98336111 36396,6950.174,96.107,574.107,569.971,0.0
55965.0,STARLINK-5894,PAYLOAD,2023-11-05 22:36:19,14.98332709,0.0002762,70.0014,259.4326,267.5012,92.5831,0.00011507,1.28e-05,0.0,0 STARLINK-5894,1 55965U 23037BD  23309.94188678  .00001280  00000-0  11507-3 0  9991,2 55965  70.0014 259.4326 0002762 267.5012  92.5831 14.98332709 36446,6950.185,96.107,573.969,570.13,0.0
55965.0,STARLINK-5894,PAYLOAD,2023-11-06 03:24:42,14.98349321,0.0002965,69.9996,258.9303,269.4779,90.604,0.00017399,1.985e-05,0.0,0 STARLINK-5894,1 55965U 23037BD  23310.14215319  .00001985  00000-0  17399-3 0  9995,2 55965  69.9996 258.9303 0002965 269.4779  90.6040 14.98349321 36817,6950.133,96.106,574.059,569.937,0.0
55965.0,STARLINK-5894,PAYLOAD,2023-11-06 06:36:57,14.98351006,0.0002798,70.0005,258.5939,266.3828,93.7011,0.0002163,2.49e-05,0.0,0 STARLINK-5894,1 55965U 23037BD  23310.27566937  .00002490  00000-0  21630-3 0  9999,2 55965  70.0005 258.5939 0002798 266.3828  93.7011 14.98351006 36496,6950.128,96.106,573.938,570.048,0.0
55965.0,STARLINK-5894,PAYLOAD,2023-11-06 22:38:21,14.98310789,0.0002741,70.0001,256.9115,269.7305,90.354,-0.00021966,-2.712e-05,0.0,0 STARLINK-5894,1 55965U 23037BD  23310.94330908 -.00002712  00000-0 -21966-3 0  9991,2 55965  70.0001 256.9115 0002741 269.7305  90.3540 14.98310789 36599,6950.252,96.108,574.022,570.212,0.0
55965.0,STARLINK-5894,PAYLOAD,2023-11-07 03:26:48,14.98283636,0.0002637,70.0002,256.405,278.0226,82.0633,-0.00060093,-7.247e-05,0.0,0 STARLINK-5894,1 55965U 23037BD  23311.14362072 -.00007247  00000-0 -60093-3 0  9993,2 55965  70.0002 256.4050 0002637 278.0226  82.0633 14.98283636 36964,6950.336,96.11,574.034,570.368,0.0
55965.0,STARLINK-5894,PAYLOAD,2023-11-07 06:39:05,14.98280119,0.0002737,70.0013,256.07,275.3991,84.6856,-0.00047838,-5.789e-05,0.0,0 STARLINK-5894,1 55965U 23037BD  23311.27714392 -.00005789  00000-0 -47838-3 0  9994,2 55965  70.0013 256.0700 0002737 275.3991  84.6856 14.98280119 36647,6950.347,96.11,574.114,570.31,0.0
55965.0,STARLINK-5894,PAYLOAD,2023-11-08 03:28:46,14.9833822,0.0002253,70.0015,253.8815,270.0145,90.0755,2.4372e-05,1.98e-06,0.0,0 STARLINK-5894,1 55965U 23037BD  23312.14497741  .00000198  00000-0  24372-4 0  9993,2 55965  70.0015 253.8815 0002253 270.0145  90.0755 14.98338220 37116,6950.167,96.106,573.598,570.467,0.0
55965.0,STARLINK-5894,PAYLOAD,2023-11-08 06:41:01,14.98349919,0.0002844,70.0003,253.5467,265.6831,94.4003,7.8781e-05,8.48e-06,0.0,0 STARLINK-5894,1 55965U 23037BD  23312.27848680  .00000848  00000-0  78781-4 0  9994,2 55965  70.0003 253.5467 0002844 265.6831  94.4003 14.98349919 37134,6950.131,96.106,573.973,570.02,0.0
55965.0,STARLINK-5894,PAYLOAD,2023-11-08 22:42:22,14.98321098,0.0002415,70.0016,251.8636,264.3166,95.7717,0.00044949,5.273e-05,0.0,0 STARLINK-5894,1 55965U 23037BD  23312.94609356  .00005273  00000-0  44949-3 0  9998,2 55965  70.0016 251.8636 0002415 264.3166  95.7717 14.98321098 36894,6950.22,96.108,573.764,570.407,0.0
55965.0,STARLINK-5894,PAYLOAD,2023-11-09 03:30:45,14.98333797,0.0002641,70.0002,251.3558,275.3523,84.7335,0.00051265,6.03e-05,0.0,0 STARLINK-5894,1 55965U 23037BD  23313.14636479  .00006030  00000-0  51265-3 0  9998,2 55965  70.0002 251.3558 0002641 275.3523  84.7335 14.98333797 37262,6950.181,96.107,573.882,570.211,0.0
55965.0,STARLINK-5894,PAYLOAD,2023-11-09 05:06:54,14.98332155,0.0002558,70.0004,251.1881,272.4241,87.6625,0.00047284,5.554e-05,0.0,0 STARLINK-5894,1 55965U 23037BD  23313.21312673  .00005554  00000-0  47284-3 0  9999,2 55965  70.0004 251.1881 0002558 272.4241  87.6625 14.98332155 36937,6950.186,96.107,573.829,570.273,0.0
55965.0,STARLINK-5894,PAYLOAD,2023-11-09 22:44:23,14.98341751,0.0002673,70.0002,249.3371,269.1165,90.9688,-0.00011649,-1.483e-05,0.0,0 STARLINK-5894,1 55965U 23037BD  23313.94749666 -.00001483  00000-0 -11649-3 0  9990,2 55965  70.0002 249.3371 0002673 269.1165  90.9688 14.98341751 37045,6950.157,96.106,573.879,570.164,0.0
